NORAD_CAT_ID,OBJECT_NAME,OBJECT_TYPE,EPOCH,MEAN_MOTION,ECCENTRICITY,INCLINATION,RA_OF_ASC_NODE,ARG_OF_PERICENTER,MEAN_ANOMALY,BSTAR,MEAN_MOTION_DOT,MEAN_MOTION_DDOT,TLE_LINE0,TLE_LINE1,TLE_LINE2,SEMIMAJOR_AXIS,PERIOD,APOGEE,PERIGEE,DECAYED
54003.0,STARLINK-5114,PAYLOAD,2023-05-16 07:13:44,15.08836455,0.0001195,53.2155,150.5316,91.6522,268.4607,6.0029e-05,6.68e-06,0.0,0 STARLINK-5114,1 54003U 22125AR  23136.30121366  .00000668  00000-0  60029-4 0  9992,2 54003  53.2155 150.5316 0001195  91.6522 268.4607 15.08836455 34215,6917.891,95.438,540.583,538.93,0.0
54003.0,STARLINK-5114,PAYLOAD,2023-05-16 18:21:26,15.08838452,0.0001205,53.2157,148.4501,91.0992,269.0138,5.9256e-05,6.55e-06,0.0,0 STARLINK-5114,1 54003U 22125AR  23136.76489281  .00000655  00000-0  59256-4 0  9991,2 54003  53.2157 148.4501 0001205  91.0992 269.0138 15.08838452 34288,6917.885,95.438,540.584,538.917,0.0
54003.0,STARLINK-5114,PAYLOAD,2023-05-17 07:04:31,15.08844278,0.0001228,53.2158,146.0711,89.1643,270.9489,5.0324e-05,5.13e-06,0.0,0 STARLINK-5114,1 54003U 22125AR  23137.29480840  .00000513  00000-0  50324-4 0  9992,2 54003  53.2158 146.0711 0001228  89.1643 270.9489 15.08844278 34410,6917.867,95.437,540.582,538.883,0.0
54003.0,STARLINK-5114,PAYLOAD,2023-05-18 00:33:46,15.08838822,0.0001179,53.2155,142.8005,86.4832,273.6295,6.7197e-05,7.82e-06,0.0,0 STARLINK-5114,1 54003U 22125AR  23138.02345046  .00000782  00000-0  67197-4 0  9996,2 54003  53.2155 142.8005 0001179  86.4832 273.6295 15.08838822 34527,6917.884,95.438,540.565,538.933,0.0
54003.0,STARLINK-5114,PAYLOAD,2023-05-18 10:06:04,15.0883937,0.0001181,53.2157,141.0164,85.2709,274.8418,5.7263e-05,6.24e-06,0.0,0 STARLINK-5114,1 54003U 22125AR  23138.42089026  .00000624  00000-0  57263-4 0  9991,2 54003  53.2157 141.0164 0001181  85.2709 274.8418 15.08839370 34539,6917.882,95.438,540.564,538.93,0.0
54003.0,STARLINK-5114,PAYLOAD,2023-05-19 09:56:52,15.08838702,0.0001206,53.2157,136.5559,86.0988,274.0142,5.9408e-06,-1.93e-06,0.0,0 STARLINK-5114,1 54003U 22125AR  23139.41449258 -.00000193  00000-0  59408-5 0  9994,2 54003  53.2157 136.5559 0001206  86.0988 274.0142 15.08838702 34738,6917.884,95.438,540.584,538.915,0.0
54003.0,STARLINK-5114,PAYLOAD,2023-05-19 16:18:24,15.08838157,0.0001194,53.2157,135.3665,85.5802,274.5326,7.3544e-06,-1.71e-06,0.0,0 STARLINK-5114,1 54003U 22125AR  23139.67945290 -.00000171  00000-0  73544-5 0  9992,2 54003  53.2157 135.3665 0001194  85.5802 274.5326 15.08838157 34720,6917.886,95.438,540.577,538.925,0.0
54003.0,STARLINK-5114,PAYLOAD,2023-05-20 16:09:11,15.08840683,0.0001255,53.2161,130.9068,109.2479,250.8649,4.9027e-05,4.92e-06,0.0,0 STARLINK-5114,1 54003U 22125AR  23140.67305062  .00000492  00000-0  49027-4 0  9994,2 54003  53.2161 130.9068 0001255 109.2479 250.8649 15.08840683 34929,6917.878,95.438,540.611,538.875,0.0
54003.0,STARLINK-5114,PAYLOAD,2023-05-21 06:27:39,15.08846608,0.0001197,53.2165,128.2311,97.2564,262.8564,2.4044e-05,9.5e-07,0.0,0 STARLINK-5114,1 54003U 22125AR  23141.26920767  .00000095  00000-0  24044-4 0  9996,2 54003  53.2165 128.2311 0001197  97.2564 262.8564 15.08846608 34966,6917.86,95.437,540.553,538.897,0.0
54003.0,STARLINK-5114,PAYLOAD,2023-05-21 15:59:58,15.08837209,0.0001107,53.2151,126.4462,90.2016,269.9103,3.0003e-06,-2.4e-06,0.0,0 STARLINK-5114,1 54003U 22125AR  23141.66665448 -.00000240  00000-0  30003-5 0  9998,2 54003  53.2151 126.4462 0001107  90.2016 269.9103 15.08837209 35071,6917.889,95.438,540.52,538.988,0.0
54003.0,STARLINK-5114,PAYLOAD,2023-05-22 06:18:27,15.08831722,0.0001264,53.216,123.7708,98.0486,262.0649,-2.971e-05,-7.61e-06,0.0,0 STARLINK-5114,1 54003U 22125AR  23142.26282215 -.00000761  00000-0 -29710-4 0  9993,2 54003  53.2160 123.7708 0001264  98.0486 262.0649 15.08831722 35168,6917.906,95.438,540.645,538.896,0.0
54003.0,STARLINK-5114,PAYLOAD,2023-05-22 15:50:46,15.08835948,0.0001256,53.2158,121.9865,97.4684,262.6451,1.2256e-05,-9.3e-07,0.0,0 STARLINK-5114,1 54003U 22125AR  23142.66025954 -.00000093  00000-0  12256-4 0  9996,2 54003  53.2158 121.9865 0001256  97.4684 262.6451 15.08835948 35175,6917.893,95.438,540.627,538.889,0.0
54003.0,STARLINK-5114,PAYLOAD,2023-05-23 07:44:37,15.08843076,0.0001285,53.2158,119.0129,96.7062,263.4076,6.8275e-05,7.99e-06,0.0,0 STARLINK-5114,1 54003U 22125AR  23143.32265398  .00000799  00000-0  68275-4 0  9992,2 54003  53.2158 119.0129 0001285  96.7062 263.4076 15.08843076 35320,6917.871,95.437,540.625,538.847,0.0
54003.0,STARLINK-5114,PAYLOAD,2023-05-23 15:41:33,15.08840067,0.0001175,53.2155,117.5236,96.297,263.8156,2.6771e-06,-2.45e-06,0.0,0 STARLINK-5114,1 54003U 22125AR  23143.65385731 -.00000245  00000-0  26771-5 0  9995,2 54003  53.2155 117.5236 0001175  96.2970 263.8156 15.08840067 35320,6917.88,95.438,540.558,538.932,0.0
54003.0,STARLINK-5114,PAYLOAD,2023-05-24 07:35:24,15.0883896,0.0001232,53.2158,114.549,101.2453,258.8678,0.00010777,1.428e-05,0.0,0 STARLINK-5114,1 54003U 22125AR  23144.31625752  .00001428  00000-0  10777-3 0  9999,2 54003  53.2158 114.5490 0001232 101.2453 258.8678 15.08838960 35422,6917.884,95.438,540.601,538.896,0.0
54003.0,STARLINK-5114,PAYLOAD,2023-05-26 04:06:12,15.08842693,0.0001246,53.2162,106.2231,94.6803,265.4331,4.8319e-05,4.81e-06,0.0,0 STARLINK-5114,1 54003U 22125AR  23146.17097713  .00000481  00000-0  48319-4 0  9997,2 54003  53.2162 106.2231 0001246  94.6803 265.4331 15.08842693 35751,6917.872,95.437,540.599,538.875,0.0
54003.0,STARLINK-5114,PAYLOAD,2023-05-26 21:35:27,15.08836347,0.0001295,53.2166,102.9528,92.4149,267.6991,2.8457e-06,-2.43e-06,0.0,0 STARLINK-5114,1 54003U 22125AR  23146.89962346 -.00000243  00000-0  28457-5 0  9998,2 54003  53.2166 102.9528 0001295  92.4149 267.6991 15.08836347 35812,6917.892,95.438,540.652,538.861,0.0
54003.0,STARLINK-5114,PAYLOAD,2023-05-27 02:21:36,15.08836649,0.0001272,53.2168,102.0605,92.1989,267.9149,3.5563e-06,-2.31e-06,0.0,0 STARLINK-5114,1 54003U 22125AR  23147.09834344 -.00000231  00000-0  35563-5 0  9990,2 54003  53.2168 102.0605 0001272  92.1989 267.9149 15.08836649 35896,6917.891,95.438,540.636,538.876,0.0
54003.0,STARLINK-5114,PAYLOAD,2023-05-27 13:29:18,15.08836035,0.000118,53.2164,99.9801,93.5551,266.5576,-2.977e-07,-2.93e-06,0.0,0 STARLINK-5114,1 54003U 22125AR  23147.56202427 -.00000293  00000-0 -29770-6 0  9996,2 54003  53.2164  99.9801 0001180  93.5551 266.5576 15.08836035 35913,6917.893,95.438,540.574,538.941,0.0
54003.0,STARLINK-5114,PAYLOAD,2023-05-28 05:23:10,15.08836715,0.0001229,53.2166,97.0069,98.3587,261.7544,7.042e-06,-1.76e-06,0.0,0 STARLINK-5114,1 54003U 22125AR  23148.22442544 -.00000176  00000-0  70420-5 0  9992,2 54003  53.2166  97.0069 0001229  98.3587 261.7544 15.08836715 36060,6917.89,95.438,540.606,538.905,0.0
54003.0,STARLINK-5114,PAYLOAD,2023-05-29 05:13:56,15.0884518,0.0001196,53.217,92.5464,98.0153,262.0975,0.00010082,1.317e-05,0.0,0 STARLINK-5114,1 54003U 22125AR  23149.21801779  .00001317  00000-0  10082-3 0  9994,2 54003  53.2170  92.5464 0001196  98.0153 262.0975 15.08845180 36218,6917.865,95.437,540.557,538.902,0.0
54003.0,STARLINK-5114,PAYLOAD,2023-05-29 21:07:48,15.08833485,0.0001693,53.2167,89.5729,157.1868,202.92,2.1795e-05,5.9e-07,0.0,0 STARLINK-5114,1 54003U 22125AR  23149.88042523  .00000059  00000-0  21795-4 0  9997,2 54003  53.2167  89.5729 0001693 157.1868 202.9200 15.08833485 36260,6917.9,95.438,540.937,538.594,0.0
54003.0,STARLINK-5114,PAYLOAD,2023-05-30 00:18:35,15.08829855,0.0001185,53.2164,88.9748,117.6683,242.443,1.1108e-05,-1.11e-06,0.0,0 STARLINK-5114,1 54003U 22125AR  23150.01291040 -.00000111  00000-0  11108-4 0  9991,2 54003  53.2164  88.9748 0001185 117.6683 242.4430 15.08829855 36331,6917.911,95.438,540.596,538.957,0.0
54003.0,STARLINK-5114,PAYLOAD,2023-05-30 03:29:21,15.08832268,0.000115,53.217,88.3831,82.9883,277.124,-1.3696e-05,-5.06e-06,0.0,0 STARLINK-5114,1 54003U 22125AR  23150.14539302 -.00000506  00000-0 -13696-4 0  9994,2 54003  53.2170  88.3831 0001150  82.9883 277.1240 15.08832268 36306,6917.904,95.438,540.565,538.973,0.0
54003.0,STARLINK-5114,PAYLOAD,2023-05-30 19:23:12,15.08842542,0.0001123,53.2176,85.4057,106.2762,253.8353,-2.8125e-05,-7.35e-06,0.0,0 STARLINK-5114,1 54003U 22125AR  23150.80778781 -.00000735  00000-0 -28125-4 0  9990,2 54003  53.2176  85.4057 0001123 106.2762 253.8353 15.08842542 36454,6917.873,95.437,540.514,538.961,0.0
54003.0,STARLINK-5114,PAYLOAD,2023-05-31 01:44:44,15.08849053,0.0001093,53.2167,84.2205,85.699,274.4127,4.8373e-05,4.82e-06,0.0,0 STARLINK-5114,1 54003U 22125AR  23151.07274022  .00000482  00000-0  48373-4 0  9993,2 54003  53.2167  84.2205 0001093  85.6990 274.4127 15.08849053 36491,6917.853,95.437,540.474,538.962,0.0
54003.0,STARLINK-5114,PAYLOAD,2023-05-31 04:55:30,15.08855219,0.0001119,53.217,83.6247,89.026,271.086,7.562e-05,9.16e-06,0.0,0 STARLINK-5114,1 54003U 22125AR  23151.20521496  .00000916  00000-0  75620-4 0  9995,2 54003  53.2170  83.6247 0001119  89.0260 271.0860 15.08855219 36466,6917.834,95.437,540.473,538.925,0.0
54003.0,STARLINK-5114,PAYLOAD,2023-06-01 01:35:32,15.08835163,0.0001324,53.2168,79.7594,95.7144,264.3999,6.1994e-05,6.99e-06,0.0,0 STARLINK-5114,1 54003U 22125AR  23152.06634848  .00000699  00000-0  61994-4 0  9993,2 54003  53.2168  79.7594 0001324  95.7144 264.3999 15.08835163 36641,6917.895,95.438,540.676,538.844,0.0
54003.0,STARLINK-5114,PAYLOAD,2023-06-01 04:46:18,15.08837349,0.0001368,53.218,79.1617,102.4218,257.6928,8.1779e-05,1.014e-05,0.0,0 STARLINK-5114,1 54003U 22125AR  23152.19882660  .00001014  00000-0  81779-4 0  9999,2 54003  53.2180  79.1617 0001368 102.4218 257.6928 15.08837349 36613,6917.888,95.438,540.7,538.807,0.0
54003.0,STARLINK-5114,PAYLOAD,2023-06-02 04:37:05,15.08845376,0.0001293,53.2175,74.7024,91.9778,268.1362,-4.8975e-05,-1.067e-05,0.0,0 STARLINK-5114,1 54003U 22125AR  23153.19242575 -.00001067  00000-0 -48975-4 0  9996,2 54003  53.2175  74.7024 0001293  91.9778 268.1362 15.08845376 36810,6917.864,95.437,540.623,538.834,0.0
